[{"OBJECT_NAME":"STARLINK-34839","OBJECT_ID":"2025-212AD","EPOCH":"2026-03-09T22:26:54.658176","MEAN_MOTION":15.3021873,"ECCENTRICITY":9.877e-5,"INCLINATION":53.1595,"RA_OF_ASC_NODE":344.3512,"ARG_OF_PERICENTER":112.3139,"MEAN_ANOMALY":247.7966,"EPHEMERIS_TYPE":0,"CLASSIFICATION_TYPE":"U","NORAD_CAT_ID":65703,"ELEMENT_SET_NO":999,"REV_AT_EPOCH":2728,"BSTAR":0.00070590751,"MEAN_MOTION_DOT":0.00020618,"MEAN_MOTION_DDOT":0},{"OBJECT_NAME":"ELECTRON KICK STAGE R\/B","OBJECT_ID":"2022-147B","EPOCH":"2026-03-09T22:28:20.187264","MEAN_MOTION":15.28920172,"ECCENTRICITY":0.00095089,"INCLINATION":97.642,"RA_OF_ASC_NODE":85.1135,"ARG_OF_PERICENTER":110.4683,"MEAN_ANOMALY":249.7578,"EPHEMERIS_TYPE":0,"CLASSIFICATION_TYPE":"U","NORAD_CAT_ID":54228,"ELEMENT_SET_NO":999,"REV_AT_EPOCH":18390,"BSTAR":0.00083201931,"MEAN_MOTION_DOT":0.00023374,"MEAN_MOTION_DDOT":0}]
